{
  "type": "FeatureCollection",
  "features": [
    {
      "type": "Feature",
      "properties": {
        "norad_id": 34350,
        "name": "IRIDIUM 33 DEB",
        "group": "iridium-33-debris",
        "lat": 83.05800314417466,
        "lon": 37.190851937635394,
        "alt_km": 727.8516250754337,
        "timestamp": "2025-12-06T20:37:56.460155+00:00",
        "meta_object_name": "IRIDIUM 33 DEB",
        "meta_object_id": "1997-051ES",
        "meta_epoch": "2025-12-06T14:11:52.830816",
        "meta_mean_motion": 14.45366247,
        "meta_eccentricity": 0.00221806,
        "meta_inclination": 86.328,
        "meta_ra_of_asc_node": 5.4752,
        "meta_arg_of_pericenter": 154.4989,
        "meta_mean_anomaly": 335.7488,
        "meta_ephemeris_type": 0,
        "meta_classification_type": "U",
        "meta_norad_cat_id": 34350,
        "meta_element_set_no": 999,
        "meta_rev_at_epoch": 88204,
        "meta_bstar": 0.00058263212,
        "meta_mean_motion_dot": 2.073e-05,
        "meta_mean_motion_ddot": 0,
        "tle_line1": "1 34350U 97051ES  25340.59158369  .00002073  00000+0  58263-3 0  9995",
        "tle_line2": "2 34350  86.3280   5.4752 0022180 154.4989 335.7488 14.45366247882042"
      },
      "geometry": {
        "type": "Point",
        "coordinates": [
          37.190851937635394,
          83.05800314417466
        ]
      }
    },
    {
      "type": "Feature",
      "properties": {
        "norad_id": 34366,
        "name": "IRIDIUM 33 DEB",
        "group": "iridium-33-debris",
        "lat": -49.86118102988257,
        "lon": -123.81257692986887,
        "alt_km": 714.6857150946043,
        "timestamp": "2025-12-06T20:37:56.460168+00:00",
        "meta_object_name": "IRIDIUM 33 DEB",
        "meta_object_id": "1997-051FJ",
        "meta_epoch": "2025-12-06T15:13:30.910656",
        "meta_mean_motion": 14.5397417,
        "meta_eccentricity": 0.00220073,
        "meta_inclination": 86.3704,
        "meta_ra_of_asc_node": 51.9683,
        "meta_arg_of_pericenter": 159.1934,
        "meta_mean_anomaly": 331.9723,
        "meta_ephemeris_type": 0,
        "meta_classification_type": "U",
        "meta_norad_cat_id": 34366,
        "meta_element_set_no": 999,
        "meta_rev_at_epoch": 88093,
        "meta_bstar": 0.0019702694,
        "meta_mean_motion_dot": 8.348e-05,
        "meta_mean_motion_ddot": 0,
        "tle_line1": "1 34366U 97051FJ  25340.63438554  .00008348  00000+0  19703-2 0  9990",
        "tle_line2": "2 34366  86.3704  51.9683 0022007 159.1934 331.9723 14.53974170880934"
      },
      "geometry": {
        "type": "Point",
        "coordinates": [
          -123.81257692986887,
          -49.86118102988257
        ]
      }
    },
    {
      "type": "Feature",
      "properties": {
        "norad_id": 34375,
        "name": "IRIDIUM 33 DEB",
        "group": "iridium-33-debris",
        "lat": -7.370413147023775,
        "lon": 5.529201490447218,
        "alt_km": 780.7337398364725,
        "timestamp": "2025-12-06T20:37:56.460179+00:00",
        "meta_object_name": "IRIDIUM 33 DEB",
        "meta_object_id": "1997-051FT",
        "meta_epoch": "2025-12-06T13:07:23.276352",
        "meta_mean_motion": 14.17975687,
        "meta_eccentricity": 0.01028144,
        "meta_inclination": 86.433,
        "meta_ra_of_asc_node": 185.193,
        "meta_arg_of_pericenter": 146.2209,
        "meta_mean_anomaly": 244.0709,
        "meta_ephemeris_type": 0,
        "meta_classification_type": "U",
        "meta_norad_cat_id": 34375,
        "meta_element_set_no": 999,
        "meta_rev_at_epoch": 86624,
        "meta_bstar": 0.00069808059,
        "meta_mean_motion_dot": 1.524e-05,
        "meta_mean_motion_ddot": 0,
        "tle_line1": "1 34375U 97051FT  25340.54679718  .00001524  00000+0  69808-3 0  9990",
        "tle_line2": "2 34375  86.4330 185.1930 0102814 146.2209 244.0709 14.17975687866242"
      },
      "geometry": {
        "type": "Point",
        "coordinates": [
          5.529201490447218,
          -7.370413147023775
        ]
      }
    },
    {
      "type": "Feature",
      "properties": {
        "norad_id": 34376,
        "name": "IRIDIUM 33 DEB",
        "group": "iridium-33-debris",
        "lat": -22.0983320469729,
        "lon": 7.677153742919069,
        "alt_km": 707.1403894340519,
        "timestamp": "2025-12-06T20:37:56.460191+00:00",
        "meta_object_name": "IRIDIUM 33 DEB",
        "meta_object_id": "1997-051FU",
        "meta_epoch": "2025-12-06T09:14:19.527072",
        "meta_mean_motion": 14.62432778,
        "meta_eccentricity": 0.00264481,
        "meta_inclination": 86.2981,
        "meta_ra_of_asc_node": 9.3968,
        "meta_arg_of_pericenter": 188.2227,
        "meta_mean_anomaly": 171.8555,
        "meta_ephemeris_type": 0,
        "meta_classification_type": "U",
        "meta_norad_cat_id": 34376,
        "meta_element_set_no": 999,
        "meta_rev_at_epoch": 87914,
        "meta_bstar": 0.0025887484,
        "meta_mean_motion_dot": 0.000132,
        "meta_mean_motion_ddot": 0,
        "tle_line1": "1 34376U 97051FU  25340.38494823  .00013200  00000+0  25887-2 0  9997",
        "tle_line2": "2 34376  86.2981   9.3968 0026448 188.2227 171.8555 14.62432778879143"
      },
      "geometry": {
        "type": "Point",
        "coordinates": [
          7.677153742919069,
          -22.0983320469729
        ]
      }
    },
    {
      "type": "Feature",
      "properties": {
        "norad_id": 34486,
        "name": "IRIDIUM 33 DEB",
        "group": "iridium-33-debris",
        "lat": -35.22154484811284,
        "lon": -162.7092157967774,
        "alt_km": 586.363399663086,
        "timestamp": "2025-12-06T20:37:56.460202+00:00",
        "meta_object_name": "IRIDIUM 33 DEB",
        "meta_object_id": "1997-051GB",
        "meta_epoch": "2025-12-06T13:48:30.216672",
        "meta_mean_motion": 14.95383361,
        "meta_eccentricity": 0.00132255,
        "meta_inclination": 86.3926,
        "meta_ra_of_asc_node": 14.8692,
        "meta_arg_of_pericenter": 133.3497,
        "meta_mean_anomaly": 352.0422,
        "meta_ephemeris_type": 0,
        "meta_classification_type": "U",
        "meta_norad_cat_id": 34486,
        "meta_element_set_no": 999,
        "meta_rev_at_epoch": 88894,
        "meta_bstar": 0.0035222853,
        "meta_mean_motion_dot": 0.00039136,
        "meta_mean_motion_ddot": 0,
        "tle_line1": "1 34486U 97051GB  25340.57534973  .00039136  00000+0  35223-2 0  9992",
        "tle_line2": "2 34486  86.3926  14.8692 0013225 133.3497 352.0422 14.95383361888942"
      },
      "geometry": {
        "type": "Point",
        "coordinates": [
          -162.7092157967774,
          -35.22154484811284
        ]
      }
    },
    {
      "type": "Feature",
      "properties": {
        "norad_id": 34487,
        "name": "IRIDIUM 33 DEB",
        "group": "iridium-33-debris",
        "lat": -77.38371460412557,
        "lon": -148.49321926107964,
        "alt_km": 763.5450914928624,
        "timestamp": "2025-12-06T20:37:56.460213+00:00",
        "meta_object_name": "IRIDIUM 33 DEB",
        "meta_object_id": "1997-051GC",
        "meta_epoch": "2025-12-05T08:34:04.230624",
        "meta_mean_motion": 14.43201608,
        "meta_eccentricity": 0.00321216,
        "meta_inclination": 86.3441,
        "meta_ra_of_asc_node": 15.5556,
        "meta_arg_of_pericenter": 151.732,
        "meta_mean_anomaly": 223.5238,
        "meta_ephemeris_type": 0,
        "meta_classification_type": "U",
        "meta_norad_cat_id": 34487,
        "meta_element_set_no": 999,
        "meta_rev_at_epoch": 88142,
        "meta_bstar": 0.00035058691,
        "meta_mean_motion_dot": 1.205e-05,
        "meta_mean_motion_ddot": 0,
        "tle_line1": "1 34487U 97051GC  25339.35699341  .00001205  00000+0  35059-3 0  9992",
        "tle_line2": "2 34487  86.3441  15.5556 0032121 151.7320 223.5238 14.43201608881426"
      },
      "geometry": {
        "type": "Point",
        "coordinates": [
          -148.49321926107964,
          -77.38371460412557
        ]
      }
    },
    {
      "type": "Feature",
      "properties": {
        "norad_id": 34488,
        "name": "IRIDIUM 33 DEB",
        "group": "iridium-33-debris",
        "lat": -46.2396723531139,
        "lon": 132.568616911444,
        "alt_km": 500.54498246296043,
        "timestamp": "2025-12-06T20:37:56.460224+00:00",
        "meta_object_name": "IRIDIUM 33 DEB",
        "meta_object_id": "1997-051GD",
        "meta_epoch": "2025-12-06T14:55:40.946016",
        "meta_mean_motion": 15.27290051,
        "meta_eccentricity": 0.00149214,
        "meta_inclination": 86.3249,
        "meta_ra_of_asc_node": 308.8374,
        "meta_arg_of_pericenter": 60.0841,
        "meta_mean_anomaly": 300.1886,
        "meta_ephemeris_type": 0,
        "meta_classification_type": "U",
        "meta_norad_cat_id": 34488,
        "meta_element_set_no": 999,
        "meta_rev_at_epoch": 89146,
        "meta_bstar": 0.0068100775,
        "meta_mean_motion_dot": 0.0018679,
        "meta_mean_motion_ddot": 0,
        "tle_line1": "1 34488U 97051GD  25340.62200169  .00186790  00000+0  68101-2 0  9997",
        "tle_line2": "2 34488  86.3249 308.8374 0014921  60.0841 300.1886 15.27290051891466"
      },
      "geometry": {
        "type": "Point",
        "coordinates": [
          132.568616911444,
          -46.2396723531139
        ]
      }
    }
  ]
}